Reg No,name,City,address,zip,email,mobile no,blood group
8,Leota,Surat,7 W Jackson Blvd,95111,leota@hotmail.com,408-752-3500,A-
16,Mattie,Thane,73 State Road 434 E,85013,mattie@aol.com,602-277-4385,A-
24,Maryann,Agra,74 S Westgate St,12204,mroyster@royster.com,518-966-7987,A-
32,Francine,Varanasi,366 South Dr,88011,francine_vocelka@vocelka.com,505-977-3911,A-
40,Kati,Howrah,6980 Dorsett Rd,67410,kati.rulapaugh@hotmail.com,785-463-7829,A-
48,Kanisha,Kota,5 Tomahawk Dr,90006,kanisha_waycott@yahoo.com,323-453-2780,A-
56,Tonette,Kolkata,4545 Courthouse Rd,11590,twenner@aol.com,516-968-6051,A-
64,Carmelina,Indore,2664 Lewis Rd,80126,carmelina_lindall@lindall.com,303-724-7371,A-
72,Johnetta,Ludhiana,1088 Pinehurst St,27514,johnetta_abdallah@aol.com,919-225-9345,A-
80,Elza,Solapur,6794 Lake Dr E,7104,elza@yahoo.com,973-927-3447,A-
88,Lai,Ranchi,37 Alabama Ave,60201,lai.gato@gato.org,847-728-7286,A-
96,Carma,Raipur,68556 Central Hwy,94577,carma@cox.net,510-503-7169,A-
104,Cyndy,Ahmedabad,170 Wyoming Ave,55337,cgoldammer@cox.net,952-334-9408,A-
112,Sue,Nagpur,2 Se 3rd Ave,75149,sue@aol.com,972-666-3413,A-
120,Oretha,Ghaziabad,8 County Center Dr #647,2210,oretha_menter@yahoo.com,617-418-5043,A-
128,Van,Salem,90131 J St,8867,van.shire@shire.com,908-409-2890,A-
136,Beatriz,Allahabad,481 W Lemon St,2346,beatriz@yahoo.com,508-584-4279,A-
144,Audra,Madurai,134 Lewis Rd,37211,audra@kohnert.com,615-406-7854,A-
152,Carissa,Hyderabad,12270 Caton Center Dr,97401,carissa.batman@yahoo.com,541-326-4074,A-
160,Carin,Kanpur,1844 Southern Blvd,72202,cdeleo@deleo.com,501-308-1040,A-
168,Evangelina,Vadodara,992 Civic Center Dr,19123,evangelina@aol.com,215-964-3284,A-
176,Layla,Bhubaneshwar,229 N Forty Driv,10011,layla.springe@cox.net,212-260-3151,A-
184,Claribel,Trivendram,6 Harry L Dr #6327,43551,claribel_varriano@cox.net,419-544-4900,A-
192,Lemuel,Jodhpur,70 Euclid Ave #722,11716,lemuel.latzke@gmail.com,631-748-6479,A-
200,Jolanda,Bangalore,37855 Nolan Rd,4401,jhanafan@gmail.com,207-458-9196,A-
208,Aliza,Lucknow,1128 Delaware St,95132,aliza@aol.com,408-504-3552,A-
216,Glen,Patna,8739 Hudson St,98070,glen_bartolet@hotmail.com,206-697-5796,A-
224,Tracey,Rajkot,77132 Coon Rapids Blvd Nw,77301,tracey@hotmail.com,936-264-9294,A-
232,Eladia,Amritsar,3958 S Dupont Hwy #7,7446,eladia@saulter.com,201-474-4924,A-
240,Alex,Vijayawada,37 N Elm St #916,98409,alex@loader.com,253-660-7821,A-
248,Daron,Chennai,18 Waterloo Geneva Rd,60035,daron_dinos@cox.net,847-233-3075,A-
256,Dottie,Cochin,67 E Chestnut Hill Rd,98133,dottie@hellickson.org,206-540-6076,A-
264,Stevie,Noida,26659 N 13th St,92626,stevie.westerbeck@yahoo.com,949-867-4077,A-
272,Joseph,Meerut,60 Fillmore Ave,92647,joseph_cryer@cox.net,714-584-2237,A-
280,Garry,Dhanbad,5 Green Pond Rd #4,18966,garry_keetch@hotmail.com,215-979-8776,A-
288,Casie,Gwalior,5221 Bear Valley Rd,37211,casie.good@aol.com,615-390-2251,A-
296,Judy,Delhi,8977 Connecticut Ave Nw #3,49120,jaquas@aquas.com,269-756-7222,A-
304,Olive,Jaipur,13252 Lighthouse Ave,92234,olive@aol.com,760-938-6069,A-
312,Erinn,Visakhapatnam,13 S Hacienda Dr,7039,erinn.canlas@canlas.com,973-767-3008,A-
320,Caitlin,Faridabad,5 Williams St,2919,caitlin.julia@julia.org,401-948-4982,A-
328,Jerry,Aurangabad,393 Lafayette Ave,23219,jerry.dallen@yahoo.com,804-762-9576,A-
336,Corinne,Jabalpur,4 Carroll St,2760,corinne@loder.org,508-942-4186,A-
344,Lavonna,Mumbai,5 Cabot Rd,22102,lavonna.wolny@hotmail.com,703-483-1970,A-
352,Weldon,Pune,73 W Barstow Ave,60004,wacuff@gmail.com,847-353-2156,A-
360,Venita,Bhopal,72119 S Walker Ave #63,92801,venita_maillard@gmail.com,714-523-6653,A-
368,Wynell,Nashik,94290 S Buchanan St,94044,wynell_dorshorst@dorshorst.org,650-473-1262,A-
376,Paz,Srinagar,919 Wall Blvd,39307,paz_sahagun@cox.net,601-927-8287,A-
384,Ciara,Coimbatore,53 W Carey St,12771,cventura@yahoo.com,845-823-8877,A-
392,Lashandra,Guwahati,810 N La Brea Ave,19406,lashandra@yahoo.com,610-809-1818,A-
400,Sharee,Surat,2094 Montour Blvd,49442,sharee_maile@aol.com,231-467-9978,A-
408,Vilma,Thane,79 S Howell Ave,49546,vberlanga@berlanga.com,616-737-3085,A-
416,Ettie,Agra,39 Franklin Ave,99352,ettie.hoopengardner@hotmail.com,509-755-5393,A-
424,Keneth,Varanasi,86350 Roszel Rd,85012,keneth@yahoo.com,602-919-4211,A-
432,Luisa,Howrah,25 Se 176th Pl,2138,ljurney@hotmail.com,617-365-2134,A-
440,Quentin,Kota,278 Bayview Ave,48160,quentin_swayze@yahoo.com,734-561-6170,A-
448,Britt,Kolkata,2500 Pringle Rd Se #508,19440,britt@galam.org,215-888-3304,A-
456,Alline,Indore,55713 Lake City Hwy,46601,ajeanty@gmail.com,574-656-2800,A-
464,Tegan,Ludhiana,62260 Park Stre,8831,tegan.arceo@arceo.org,732-730-2692,A-
472,Sharen,Solapur,62 W Austin St,11791,sbourbon@yahoo.com,516-816-1541,A-
480,Refugia,Ranchi,2184 Worth St,94545,refugia.jacobos@jacobos.com,510-974-8671,A-
488,Gail,Raipur,62 Monroe St,92276,gail_similton@similton.com,760-616-5388,A-
496,Brittni,Ahmedabad,67 Rv Cent,83709,bgillaspie@gillaspie.com,208-709-1235,A-
