Reg No,name,City,address,zip,email,mobile no,blood group
7,Mitsue,Kolkata,7 Eads St,60632,mitsue_tollner@yahoo.com,773-573-6914,A+
15,Cammy,Indore,56 E Morehead St,78045,calbares@gmail.com,956-537-6195,A+
23,Willard,Ludhiana,618 W Yakima Ave,75062,willard@hotmail.com,972-303-9197,A+
31,Ammie,Solapur,74874 Atlantic Ave,43215,ammie@corrio.com,614-801-9788,A+
39,Valentine,Ranchi,775 W 17th St,78204,valentine_gillian@gmail.com,210-812-9597,A+
47,Jina,Raipur,38938 Park Blvd,2128,jina_briddick@briddick.com,617-399-5124,A+
55,Karl,Ahmedabad,76 Brooks St #9,8822,karl_klonowski@yahoo.com,908-877-6135,A+
63,Cecily,Nagpur,59 N Groesbeck Hwy,78731,cecily@hollack.org,512-486-3817,A+
71,Kallie,Ghaziabad,701 S Harrison Rd,94104,kallie.blackwood@gmail.com,415-315-2761,A+
79,Viva,Salem,4284 Dorigo Ln,60647,viva.toelkes@gmail.com,773-446-5569,A+
87,Stephaine,Allahabad,47154 Whipple Ave Nw,90247,stephaine@barfield.com,310-774-7643,A+
95,Elvera,Madurai,99385 Charity St #840,95110,elvera.benimadho@cox.net,408-703-8505,A+
103,Angella,Hyderabad,185 Blackstone Bldge,96817,angella.cetta@hotmail.com,808-892-7943,A+
111,Edna,Kanpur,555 Main St,16502,emiceli@miceli.org,814-460-2655,A+
119,Scarlet,Vadodara,9390 S Howell Ave,31701,scarlet.cartan@yahoo.com,229-735-3378,A+
127,Talia,Bhubaneshwar,1 N Harlem Ave #9,7050,talia_riopelle@aol.com,973-245-2133,A+
135,Becky,Trivendram,30553 Washington Rd,7062,becky.mirafuentes@mirafuentes.com,908-877-8409,A+
143,Bulah,Jodhpur,8927 Vandever Ave,76707,bulah_padilla@hotmail.com,254-463-4368,A+
151,Laticia,Bangalore,72 Mannix Dr,45203,lmerced@gmail.com,513-508-7371,A+
159,Gregoria,Lucknow,455 N Main Ave,11530,gpawlowicz@yahoo.com,516-212-1915,A+
167,Fannie,Patna,17 Us Highway 111,78664,fannie.lungren@yahoo.com,512-587-5746,A+
175,Nana,Rajkot,6 Van Buren St,10553,nana@aol.com,914-855-2115,A+
183,Junita,Amritsar,6 S Broadway St,7009,jbrideau@aol.com,973-943-3423,A+
191,Jettie,Vijayawada,50 E Wacker Dr,8807,jmconnell@hotmail.com,908-802-3564,A+
199,Gracia,Chennai,97 Airport Loop Dr,32216,gracia@melnyk.com,904-235-3633,A+
207,Norah,Cochin,6 Middlegate Rd #106,94107,norah.waymire@gmail.com,415-306-7897,A+
215,Frederica,Noida,99586 Main St,75207,frederica_blunk@gmail.com,214-428-2285,A+
223,Nicolette,Meerut,1 Midway Rd,1581,nicolette_brossart@brossart.com,508-837-9230,A+
231,Justine,Dhanbad,38062 E Main St,10048,jmugnolo@yahoo.com,212-304-9225,A+
239,Rickie,Gwalior,3 N Groesbeck Hwy,43613,rickie.plumer@aol.com,419-693-1334,A+
247,Marvel,Delhi,9 Vanowen St,77840,mraymo@yahoo.com,979-718-8968,A+
255,Carey,Jaipur,87393 E Highland Rd,46220,carey_dopico@dopico.org,317-578-2453,A+
263,Geoffrey,Visakhapatnam,7 West Ave #1,60067,geoffrey@gmail.com,847-222-1734,A+
271,Haydee,Faridabad,25346 New Rd,10016,hdenooyer@denooyer.org,212-792-8658,A+
279,Salome,Aurangabad,9677 Commerce Dr,23219,slacovara@gmail.com,804-550-5097,A+
287,Herminia,Jabalpur,4 58th St #3519,85254,herminia@nicolozakes.org,602-954-5141,A+
295,Lucy,Mumbai,57254 Brickell Ave #372,1602,lucy@cox.net,508-769-5250,A+
303,Renea,Pune,26 Montgomery St,30328,renea@hotmail.com,770-679-4752,A+
311,Raina,Bhopal,3829 Ventura Blvd,59701,raina.brachle@brachle.org,406-318-1515,A+
319,Jesusita,Nashik,3943 N Highland Ave,17601,jesusita.flister@hotmail.com,717-885-9118,A+
327,Derick,Srinagar,87163 N Main Ave,10013,ddhamer@cox.net,212-304-4515,A+
335,Tarra,Coimbatore,39 Moccasin Dr,94104,tarra.nachor@cox.net,415-411-1775,A+
343,Nobuko,Guwahati,8139 I Hwy 10 #92,2745,nobuko.halsey@yahoo.com,508-855-9887,A+
351,Kristofer,Surat,772 W River Dr,47404,kristofer.bennick@yahoo.com,812-368-1511,A+
359,Elouise,Thane,9506 Edgemore Ave,20710,egwalthney@yahoo.com,301-841-5012,A+
367,Paris,Agra,187 Market St,30342,paris@hotmail.com,404-505-4445,A+
375,Serina,Varanasi,7 S Beverly Dr,46802,szagen@aol.com,260-273-3725,A+
383,Mitsue,Howrah,77 222 Dr,95965,mscipione@scipione.com,530-986-9272,A+
391,Glenn,Kota,29 Cherry St #7073,50315,gberray@gmail.com,515-370-7348,A+
399,Sylvie,Kolkata,649 Tulane Ave,74105,sylvie@aol.com,918-644-9555,A+
407,Arthur,Indore,28 S 7th St #2824,7631,arthur.farrow@yahoo.com,201-238-5688,A+
415,Janine,Ludhiana,92 Broadway,11103,jrhoden@yahoo.com,718-228-5894,A+
423,Jolene,Solapur,1610 14th St Nw,23608,jolene@yahoo.com,757-682-7116,A+
431,Antione,Ranchi,4 S Washington Ave,92410,aonofrio@onofrio.com,909-430-7765,A+
439,Stephane,Raipur,9 Tower Ave,41005,stephane_myricks@cox.net,859-717-7638,A+
447,Cassi,Ahmedabad,26849 Jefferson Hwy,60008,cassi.wildfong@aol.com,847-633-3216,A+
455,Elli,Nagpur,6 Sunrise Ave,13501,emclaird@mclaird.com,315-818-2638,A+
463,Izetta,Ghaziabad,2 W Scyene Rd #3,21217,idewar@dewar.com,410-473-1708,A+
471,Jess,Salem,18 3rd Ave,10016,jess.chaffins@chaffins.org,212-510-4633,A+
479,Alpha,Allahabad,43496 Commercial Dr #29,8003,alpha@yahoo.com,856-312-2629,A+
487,Dorothy,Madurai,469 Outwater Ln,92126,dorothy@cox.net,858-617-7834,A+
495,Lai,Hyderabad,1933 Packer Ave #2,94945,lai@gmail.com,415-423-3294,A+
