Reg No,name,City,address,zip,email,mobile no,blood group
249,An,Bangalore,506 S Hacienda Dr,8401,an_fritz@hotmail.com,609-228-5265,O -
250,Portia,Hyderabad,3732 Sherman Ave,8807,portia.stimmel@aol.com,908-722-7128,O -
257,Deandrea,Lucknow,33 Lewis Rd #46,27215,deandrea@yahoo.com,336-822-7652,O -
258,Kimberlie,Kanpur,8100 Jacksonville Rd #7,67601,kimberlie_duenas@yahoo.com,785-629-8542,O -
265,Pamella,Patna,669 Packerland Dr #1438,80212,pamella@fortino.com,303-404-2210,O -
266,Harrison,Vadodara,759 Eldora St,6515,hhaufler@hotmail.com,203-801-6193,O -
273,Deonna,Rajkot,57 Haven Ave #90,48075,deonna_kippley@hotmail.com,248-913-4677,O -
274,Raymon,Bhubaneshwar,6538 E Pomona St #60,46222,raymon.calvaresi@gmail.com,317-825-4724,O -
281,Matthew,Amritsar,636 Commerce Dr #42,55379,mneither@yahoo.com,952-651-7597,O -
282,Theodora,Trivendram,42744 Hamann Industrial Pky #82,33136,theodora.restrepo@restrepo.com,305-936-8226,O -
289,Reena,Vijayawada,9648 S Main,21801,reena@hotmail.com,410-351-1863,O -
290,Mirta,Jodhpur,7 S San Marcos Rd,10004,mirta_mallett@gmail.com,212-870-1286,O -
297,Yvonne,Chennai,9 Waydell St,7004,yvonne.tjepkema@hotmail.com,973-714-1721,O -
298,Kayleigh,Bangalore,43 Huey P Long Ave,70508,kayleigh.lace@yahoo.com,337-740-9323,O -
305,Ligia,Cochin,206 Main St #2804,48933,lreiber@cox.net,517-906-1108,O -
306,Christiane,Lucknow,96541 W Central Blvd,85034,christiane.eschberger@yahoo.com,602-390-4944,O -
313,Cherry,Noida,40 9th Ave Sw #91,48329,cherry@lietz.com,248-980-6904,O -
314,Kattie,Patna,2845 Boulder Crescent St,44103,kattie@vonasek.org,216-923-3715,O -
321,Roosevelt,Meerut,60 Old Dover Rd,33014,roosevelt.hoffis@aol.com,305-622-4739,O -
322,Helaine,Rajkot,8 Sheridan Rd,7304,hhalter@yahoo.com,201-832-4168,O -
329,Leota,Dhanbad,99 5th Ave #33,30753,leota.ragel@gmail.com,706-221-4243,O -
330,Jutta,Amritsar,49 N Mays St,70518,jamyot@hotmail.com,337-515-1438,O -
337,Dulce,Gwalior,9581 E Arapahoe Rd,48307,dulce_labreche@yahoo.com,248-357-8718,O -
338,Kate,Vijayawada,33 N Michigan Ave,54301,kate_keneipp@yahoo.com,920-353-6377,O -
345,Lashaunda,Delhi,3387 Ryan Dr,21076,llizama@cox.net,410-678-2473,O -
346,Mariann,Chennai,3125 Packer Ave #9851,78753,mariann.bilden@aol.com,512-223-4791,O -
353,Shalon,Jaipur,61047 Mayfield Ave,11223,shalon@cox.net,718-232-2337,O -
354,Denise,Cochin,2139 Santa Rosa Ave,32801,denise@patak.org,407-446-4358,O -
361,Kasandra,Visakhapatnam,369 Latham St #500,63102,kasandra_semidey@semidey.com,314-732-9131,O -
362,Xochitl,Noida,3158 Runamuck Pl,78664,xdiscipio@gmail.com,512-233-1831,O -
369,Quentin,Faridabad,7061 N 2nd St,55337,qbirkner@aol.com,952-702-7993,O -
370,Regenia,Meerut,10759 Main St,85260,regenia.kannady@cox.net,480-726-1280,O -
377,Markus,Aurangabad,89 20th St E #779,48310,markus@yahoo.com,586-970-7380,O -
378,Jaclyn,Dhanbad,721 Interstate 45 S,80919,jaclyn@aol.com,719-853-3600,O -
385,Galen,Jabalpur,617 Nw 36th Ave,44142,galen@yahoo.com,216-600-6111,O -
386,Truman,Gwalior,539 Coldwater Canyon Ave,7003,tfeichtner@yahoo.com,973-852-2736,O -
393,Lenna,Mumbai,987 Main St,27601,lnewville@newville.com,919-623-2524,O -
394,Laurel,Delhi,36 Enterprise St Se,99352,laurel@yahoo.com,509-695-5199,O -
401,Cordelia,Pune,393 Hammond Dr,70506,cordelia_storment@aol.com,337-566-6001,O -
402,Mollie,Jaipur,8590 Lake Lizzie Dr,43402,mollie_mcdoniel@yahoo.com,419-975-3182,O -
409,Billye,Bhopal,36 Lancaster Dr Se,39208,billye_miro@cox.net,601-567-5386,O -
410,Glenna,Visakhapatnam,2759 Livingston Ave,38118,glenna_slayton@cox.net,901-640-9178,O -
417,Eden,Nashik,4 Iwaena St,21202,eden_jayson@yahoo.com,410-890-7866,O -
418,Lynelle,Faridabad,32820 Corkwood Rd,7104,lynelle_auber@gmail.com,973-860-8610,O -
425,Rikki,Srinagar,1644 Clove Rd,33155,rikki@nayar.com,305-968-9487,O -
426,Elke,Aurangabad,9 W Central Ave,85013,elke_sengbusch@yahoo.com,602-896-2993,O -
433,Clorinda,Coimbatore,105 Richmond Valley Rd,92025,clorinda.heimann@hotmail.com,760-291-5497,O -
434,Dick,Jabalpur,22 Spruce St #595,90248,dick@yahoo.com,310-510-9713,O -
441,Annmarie,Guwahati,80312 W 32nd St,77301,annmarie_castros@gmail.com,936-751-7961,O -
442,Shonda,Mumbai,82 Us Highway 46,7011,shonda_greenbush@cox.net,973-482-2430,O -
449,Adell,Surat,65 Mountain View Dr,7981,adell.lipkin@lipkin.com,973-654-1561,O -
450,Jacqueline,Pune,1 N San Saba,16501,jacqueline.rowling@yahoo.com,814-865-8113,O -
457,Sharika,Thane,75698 N Fiesta Blvd,32806,sharika.eanes@aol.com,407-312-1691,O -
458,Nu,Bhopal,88 Sw 28th Ter,7029,nu@gmail.com,973-751-9003,O -
465,Ruthann,Agra,3424 29th St Se,78028,ruthann@hotmail.com,830-258-2769,O -
466,Joni,Nashik,35 E Main St #43,60007,joni_breland@cox.net,847-519-5906,O -
473,Nickolas,Varanasi,177 S Rider Trl #52,34429,nickolas_juvera@cox.net,352-598-8301,O -
474,Gary,Srinagar,2 W Mount Royal Ave,46040,gary_nunlee@nunlee.org,317-542-6023,O -
481,Shawnda,Howrah,50126 N Plankinton Ave,32750,shawnda.yori@yahoo.com,407-538-5106,O -
482,Mona,Coimbatore,38773 Gravois Ave,82001,mdelasancha@hotmail.com,307-403-1488,O -
489,Catalina,Kota,3338 A Lockport Pl #6,8402,catalina@hotmail.com,609-373-3332,O -
490,Lawrence,Guwahati,9 Hwy,2906,lawrence.lorens@hotmail.com,401-465-6432,O -
497,Raylene,Kolkata,2 Sw Nyberg Rd,46514,rkampa@kampa.org,574-499-1454,O -
498,Flo,Surat,89992 E 15th St,69301,flo.bookamer@cox.net,308-726-2182,O -
